{
    "New York": [
      {
        "name": "Greenwich Village",
        "street": "123 Bleecker Street",
        "city": "New York",
        "zip_code": "10012"
      },
      {
        "name": "West Village",
        "street": "456 Hudson Street",
        "city": "New York",
        "zip_code": "10014"
      },
      {
        "name": "East Village",
        "street": "789 St. Marks Place",
        "city": "New York",
        "zip_code": "10009"
      },
      {
        "name": "SoHo",
        "street": "101 Spring Street",
        "city": "New York",
        "zip_code": "10012"
      },
      {
        "name": "Tribeca",
        "street": "222 Greenwich Street",
        "city": "New York",
        "zip_code": "10013"
      },
      {
        "name": "Chelsea",
        "street": "333 West 23rd Street",
        "city": "New York",
        "zip_code": "10011"
      },
      {
        "name": "Upper East Side",
        "street": "777 Fifth Avenue",
        "city": "New York",
        "zip_code": "10065"
      },
      {
        "name": "Upper West Side",
        "street": "888 Amsterdam Avenue",
        "city": "New York",
        "zip_code": "10025"
      },
      {
        "name": "Harlem",
        "street": "555 Malcolm X Boulevard",
        "city": "New York",
        "zip_code": "10027"
      },
      {
        "name": "Midtown",
        "street": "350 Fifth Avenue",
        "city": "New York",
        "zip_code": "10118"
      },
      {
        "name": "Financial District",
        "street": "11 Wall Street",
        "city": "New York",
        "zip_code": "10005"
      },
      {
        "name": "Chinatown",
        "street": "48 Mott Street",
        "city": "New York",
        "zip_code": "10013"
      },
      {
        "name": "Little Italy",
        "street": "176 Mulberry Street",
        "city": "New York",
        "zip_code": "10013"
      },
      {
        "name": "Brooklyn Heights",
        "street": "135 Joralemon Street",
        "city": "Brooklyn",
        "zip_code": "11201"
      },
      {
        "name": "Williamsburg",
        "street": "240 Bedford Avenue",
        "city": "Brooklyn",
        "zip_code": "11211"
      },
      {
        "name": "Park Slope",
        "street": "321 7th Avenue",
        "city": "Brooklyn",
        "zip_code": "11215"
      },
      {
        "name": "Dumbo",
        "street": "45 Main Street",
        "city": "Brooklyn",
        "zip_code": "11201"
      },
      {
        "name": "Greenpoint",
        "street": "657 Manhattan Avenue",
        "city": "Brooklyn",
        "zip_code": "11222"
      },
      {
        "name": "Astoria",
        "street": "28-01 Steinway Street",
        "city": "Queens",
        "zip_code": "11103"
      },
      {
        "name": "Long Island City",
        "street": "22-44 Jackson Avenue",
        "city": "Queens",
        "zip_code": "11101"
      },
      {
        "name": "Flushing",
        "street": "39-07 Prince Street",
        "city": "Queens",
        "zip_code": "11354"
      },
      {
        "name": "Jackson Heights",
        "street": "82-11 37th Avenue",
        "city": "Queens",
        "zip_code": "11372"
      },
      {
        "name": "Riverdale",
        "street": "3400 Giles Place",
        "city": "Bronx",
        "zip_code": "10463"
      },
      {
        "name": "Fordham",
        "street": "2455 Grand Concourse",
        "city": "Bronx",
        "zip_code": "10468"
      },
      {
        "name": "South Bronx",
        "street": "860 Courtlandt Avenue",
        "city": "Bronx",
        "zip_code": "10451"
      },
      {
        "name": "St. George",
        "street": "10 Richmond Terrace",
        "city": "Staten Island",
        "zip_code": "10301"
      },
      {
        "name": "Tottenville",
        "street": "7485 Amboy Road",
        "city": "Staten Island",
        "zip_code": "10307"
      }
    ],
    "Austin": [
        {"name": "Downtown", "street": "600 Congress Ave", "city": "Austin", "zip_code": "78701"},
        {"name": "Rainey Street", "street": "70 Rainey St", "city": "Austin", "zip_code": "78701"},
        {"name": "Red River Cultural District", "street": "801 Red River St", "city": "Austin", "zip_code": "78701"},
        {"name": "Sixth Street", "street": "412 E 6th St", "city": "Austin", "zip_code": "78701"},
        {"name": "Warehouse District", "street": "400 Lavaca St", "city": "Austin", "zip_code": "78701"},
        {"name": "Seaholm District", "street": "222 West Ave", "city": "Austin", "zip_code": "78701"},
        {"name": "The Aboretum", "street": "10000 Research Blvd", "city": "Austin", "zip_code": "78759"},
        {"name": "The Domain", "street": "11301 Domain Dr", "city": "Austin", "zip_code": "78758"},
        {"name": "North Austin Civic Association", "street": "9708 Oak Hollow Dr", "city": "Austin", "zip_code": "78758"},
        {"name": "South Congress Avenue", "street": "1522 S Congress Ave", "city": "Austin", "zip_code": "78704"},
        {"name": "Bouldin Creek", "street": "1401 Bouldin Ave", "city": "Austin", "zip_code": "78704"},
        {"name": "Zilker", "street": "1406 Garner Ave", "city": "Austin", "zip_code": "78704"},
        {"name": "Barton Hills", "street": "2598 Barhill Dr", "city": "Austin", "zip_code": "78704"},
        {"name": "South Lamar", "street": "3418 Larchmont Dr", "city": "Austin", "zip_code": "78704"},
        {"name": "Galindo", "street": "2809 S 5th St", "city": "Austin", "zip_code": "78704"},
        {"name": "Travis Heights", "street": "1513 Alameda Dr", "city": "Austin", "zip_code": "78704"},
        {"name": "Riverside", "street": "1902 Woodland Ave", "city": "Austin", "zip_code": "78704"},
        {"name": "East Caesar Chavez", "street": "99 Navasota St", "city": "Austin", "zip_code": "78702"},
        {"name": "Central East Austin", "street": "1400 Cotton St", "city": "Austin", "zip_code": "78702"},
        {"name": "Mueller", "street": "4413 Berkman Dr", "city": "Austin", "zip_code": "78723"},
        {"name": "Cherrywood", "street": "1600 E 34th St", "city": "Austin", "zip_code": "78722"},
        {"name": "Windsor Park", "street": "1711 Wheless Ln", "city": "Austin", "zip_code": "78723"},
        {"name": "Hyde Park", "street": "4400 Avenue G", "city": "Austin", "zip_code": "78751"},
        {"name": "Allandale", "street": "2705 Twin Oaks Dr", "city": "Austin", "zip_code": "78757"},
        {"name": "West University", "street": "600 W 26th St", "city": "Austin", "zip_code": "78705"},
        {"name": "North University", "street": "106 W 32nd St", "city": "Austin", "zip_code": "78705"},
        {"name": "University of Texas", "street": "110 Inner Campus Drive", "city": "Austin", "zip_code": "78712"},
        {"name": "North Loop", "street": "501 E 53rd St", "city": "Austin", "zip_code": "78751"}
    ],
    "Boston": [
          {
            "name": "Allston",
            "street": "1065 Commonwealth Ave",
            "city": "Boston",
            "zip_code": "02134"
          },
          {
            "name": "Back Bay",
            "street": "700 Boylston St",
            "city": "Boston",
            "zip_code": "02116"
          },
          {
            "name": "Bay Village",
            "street": "130 Arlington St",
            "city": "Boston",
            "zip_code": "02116"
          },
          {
            "name": "Beacon Hill",
            "street": "24 Beacon St",
            "city": "Boston",
            "zip_code": "02133"
          },
          {
            "name": "Brighton",
            "street": "385 Washington St",
            "city": "Boston",
            "zip_code": "02135"
          },
          {
            "name": "Charlestown",
            "street": "55 Constitution Rd",
            "city": "Boston",
            "zip_code": "02129"
          },
          {
            "name": "Chinatown",
            "street": "2 Boylston St",
            "city": "Boston",
            "zip_code": "02116"
          },
          {
            "name": "Dorchester",
            "street": "1350 Dorchester Ave",
            "city": "Boston",
            "zip_code": "02122"
          },
          {
            "name": "Downtown",
            "street": "1 City Hall Square",
            "city": "Boston",
            "zip_code": "02201"
          },
          {
            "name": "East Boston",
            "street": "145 Meridian St",
            "city": "Boston",
            "zip_code": "02128"
          },
          {
            "name": "Fenway",
            "street": "4 Yawkey Way",
            "city": "Boston",
            "zip_code": "02215"
          },
          {
            "name": "Harbor Islands",
            "street": "191W Atlantic Ave",
            "city": "Boston",
            "zip_code": "02110"
          },
          {
            "name": "Hyde Park",
            "street": "1179 River St",
            "city": "Boston",
            "zip_code": "02136"
          },
          {
            "name": "Jamaica Plain",
            "street": "30 South St",
            "city": "Boston",
            "zip_code": "02130"
          },
          {
            "name": "Leather District",
            "street": "90 South St",
            "city": "Boston",
            "zip_code": "02111"
          },
          {
            "name": "Longwood",
            "street": "25 Shattuck St",
            "city": "Boston",
            "zip_code": "02115"
          },
          {
            "name": "Mattapan",
            "street": "1575 Blue Hill Ave",
            "city": "Boston",
            "zip_code": "02126"
          },
          {
            "name": "Mission Hill",
            "street": "1545 Tremont St",
            "city": "Boston",
            "zip_code": "02120"
          },
          {
            "name": "North End",
            "street": "193 Salem St",
            "city": "Boston",
            "zip_code": "02113"
          },
          {
            "name": "Roslindale",
            "street": "4238 Washington St",
            "city": "Boston",
            "zip_code": "02131"
          },
          {
            "name": "Roxbury",
            "street": "2300 Washington St",
            "city": "Boston",
            "zip_code": "02119"
          },
          {
            "name": "South Boston",
            "street": "410 West Broadway",
            "city": "Boston",
            "zip_code": "02127"
          },
          {
            "name": "South Boston Waterfront",
            "street": "1 Seaport Ln",
            "city": "Boston",
            "zip_code": "02210"
          },
          {
            "name": "South End",
            "street": "539 Tremont St",
            "city": "Boston",
            "zip_code": "02116"
          },
          {
            "name": "West End",
            "street": "100 Cambridge St",
            "city": "Boston",
            "zip_code": "02114"
          },
          {
            "name": "West Roxbury",
            "street": "1975 Centre St",
            "city": "Boston",
            "zip_code": "02132"
          }
        ],
    "San Francisco": [
              {
                "name": "Financial District",
                "street": "101 California St",
                "city": "San Francisco",
                "zip_code": "94111"
              },
              {
                "name": "Union Square",
                "street": "333 Post St",
                "city": "San Francisco",
                "zip_code": "94108"
              },
              {
                "name": "Chinatown",
                "street": "750 Grant Ave",
                "city": "San Francisco",
                "zip_code": "94108"
              },
              {
                "name": "Inner Richmond",
                "street": "3921 Geary Blvd",
                "city": "San Francisco",
                "zip_code": "94118"
              },
              {
                "name": "Outer Richmond",
                "street": "4401 Balboa St",
                "city": "San Francisco",
                "zip_code": "94121"
              },
              {
                "name": "Inner Sunset",
                "street": "1326 9th Ave",
                "city": "San Francisco",
                "zip_code": "94122"
              },
              {
                "name": "Outer Sunset",
                "street": "3045 Taraval St",
                "city": "San Francisco",
                "zip_code": "94116"
              },
              {
                "name": "Castro",
                "street": "400 Castro St",
                "city": "San Francisco",
                "zip_code": "94114"
              },
              {
                "name": "Noe Valley",
                "street": "3885 24th St",
                "city": "San Francisco",
                "zip_code": "94114"
              },
              {
                "name": "Glen Park",
                "street": "2912 Diamond St",
                "city": "San Francisco",
                "zip_code": "94131"
              },
              {
                "name": "Bernal Heights",
                "street": "515 Cortland Ave",
                "city": "San Francisco",
                "zip_code": "94110"
              },
              {
                "name": "Bayview-Hunters Point",
                "street": "4705 3rd St",
                "city": "San Francisco",
                "zip_code": "94124"
              },
              {
                "name": "Haight-Ashbury",
                "street": "1398 Haight St",
                "city": "San Francisco",
                "zip_code": "94117"
              },
              {
                "name": "Mission District",
                "street": "2981 24th St",
                "city": "San Francisco",
                "zip_code": "94110"
              },
              {
                "name": "Nob Hill",
                "street": "1075 California St",
                "city": "San Francisco",
                "zip_code": "94108"
              },
              {
                "name": "Pacific Heights",
                "street": "2080 Jackson St",
                "city": "San Francisco",
                "zip_code": "94109"
              },
              {
                "name": "SoMa",
                "street": "185 Berry St",
                "city": "San Francisco",
                "zip_code": "94107"
              },
              {
                "name": "North Beach",
                "street": "601 Vallejo St",
                "city": "San Francisco",
                "zip_code": "94133"
              }
    ],
    "Chicago": [
            {
                "name": "Lincoln Park",
                "street": "2001 N Clark St",
                "city": "Chicago",
                "zip_code": "60614"
            },
            {
                "name": "Lakeview",
                "street": "3551 N Southport Ave",
                "city": "Chicago",
                "zip_code": "60657"
            },
            {
                "name": "Uptown",
                "street": "4816 N Broadway",
                "city": "Chicago",
                "zip_code": "60640"
            },
            {
                "name": "Edgewater",
                "street": "1210 W Rosedale Ave",
                "city": "Chicago",
                "zip_code": "60660"
            },
            {
                "name": "Rogers Park",
                "street": "6970 N Glenwood Ave",
                "city": "Chicago",
                "zip_code": "60626"
            },
            {
                "name": "Avondale",
                "street": "2956 N Milwaukee Ave",
                "city": "Chicago",
                "zip_code": "60618"
            },
            {
                "name": "Logan Square",
                "street": "2532 N Milwaukee Ave",
                "city": "Chicago",
                "zip_code": "60647"
            },
            {
                "name": "Albany Park",
                "street": "3400 W Lawrence Ave",
                "city": "Chicago",
                "zip_code": "60625"
            },
            {
                "name": "Jefferson Park",
                "street": "5363 W Lawrence Ave",
                "city": "Chicago",
                "zip_code": "60630"
            },
            {
                "name": "West Loop",
                "street": "113 N Green St",
                "city": "Chicago",
                "zip_code": "60607"
            },
            {
                "name": "Pilsen",
                "street": "1800 S Blue Island Ave",
                "city": "Chicago",
                "zip_code": "60608"
            },
            {
                "name": "Humboldt Park",
                "street": "1440 N Humboldt Dr",
                "city": "Chicago",
                "zip_code": "60622"
            },
            {
                "name": "The Loop",
                "street": "78 E Washington St",
                "city": "Chicago",
                "zip_code": "60601"
            },
            {
                "name": "Near North Side",
                "street": "875 N Michigan Ave",
                "city": "Chicago",
                "zip_code": "60610"
            },
            {
                "name": "Hyde Park",
                "street": "5801 S Ellis Ave",
                "city": "Chicago",
                "zip_code": "60615"
            },
            {
                "name": "Bronzeville",
                "street": "3500 S Martin Luther King Dr",
                "city": "Chicago",
                "zip_code": "60653"
            },
            {
                "name": "Bridgeport",
                "street": "3500 S Halsted St",
                "city": "Chicago",
                "zip_code": "60608"
            },
            {
                "name": "Little Village",
                "street": "3100 W 26th St",
                "city": "Chicago",
                "zip_code": "60623"
            },
            {
                "name": "Back of the Yards",
                "street": "4630 S Ashland Ave",
                "city": "Chicago",
                "zip_code": "60609"
            },
            {
                "name": "Beverly",
                "street": "9901 S Walden Pkwy",
                "city": "Chicago",
                "zip_code": "60643"
            },
            {
                "name": "Pullman",
                "street": "11141 S Cottage Grove Ave",
                "city": "Chicago",
                "zip_code": "60628"
            },
            {
                "name": "Wrigleyville",
                "street": "1060 W Addison St",
                "city": "Chicago",
                "zip_code": "60613"
            },
            {
                "name": "Boystown",
                "street": "3656 N Halsted St",
                "city": "Chicago",
                "zip_code": "60613"
            },
            {
                "name": "River North",
                "street": "401 N Wells St",
                "city": "Chicago",
                "zip_code": "60654"
            },
            {
                "name": "Gold Coast",
                "street": "1000 N Lake Shore Dr",
                "city": "Chicago",
                "zip_code": "60611"
            }
    ],
    "Philadelphia": [
            {
                "name": "Center City",
                "street": "1400 John F Kennedy Blvd",
                "city": "Philadelphia",
                "zip_code": "19107"
            },
            {
                "name": "Old City",
                "street": "101 S Independence Mall E",
                "city": "Philadelphia",
                "zip_code": "19106"
            },
            {
                "name": "Fishtown",
                "street": "1201 Frankford Ave",
                "city": "Philadelphia",
                "zip_code": "19125"
            },
            {
                "name": "University City",
                "street": "3451 Walnut St",
                "city": "Philadelphia",
                "zip_code": "19104"
            },
            {
                "name": "South Philadelphia",
                "street": "1900 S 9th St",
                "city": "Philadelphia",
                "zip_code": "19148"
            },
            {
                "name": "Northern Liberties",
                "street": "1050 N Hancock St",
                "city": "Philadelphia",
                "zip_code": "19123"
            },
            {
                "name": "Manayunk",
                "street": "4312 Main St",
                "city": "Philadelphia",
                "zip_code": "19127"
            },
            {
                "name": "Chestnut Hill",
                "street": "8514 Germantown Ave",
                "city": "Philadelphia",
                "zip_code": "19118"
            },
            {
                "name": "Germantown",
                "street": "5501 Germantown Ave",
                "city": "Philadelphia",
                "zip_code": "19144"
            },
            {
                "name": "Roxborough",
                "street": "514 Dupont St",
                "city": "Philadelphia",
                "zip_code": "19128"
            },
            {
                "name": "Fairmount-Spring Garden",
                "street": "2600 Benjamin Franklin Pkwy",
                "city": "Philadelphia",
                "zip_code": "19130"
            },
            {
                "name": "East Falls",
                "street": "5450 Wissahickon Ave",
                "city": "Philadelphia",
                "zip_code": "19144"
            }
    ],
    "Seattle": [
        {
          "name": "Capitol Hill",
          "street": "1500 Broadway",
          "zip": "98122",
          "city": "Seattle"
        },
        {
          "name": "Ballard",
          "street": "5400 Ballard Ave NW",
          "zip": "98107",
          "city": "Seattle"
        },
        {
          "name": "Fremont",
          "street": "3400 Fremont Ave N",
          "zip": "98103",
          "city": "Seattle"
        },
        {
          "name": "Queen Anne",
          "street": "2000 Queen Anne Ave N",
          "zip": "98109",
          "city": "Seattle"
        },
        {
          "name": "Wallingford",
          "street": "4500 Wallingford Ave N",
          "zip": "98103",
          "city": "Seattle"
        },
        {
          "name": "Downtown",
          "street": "1500 4th Ave",
          "zip": "98101",
          "city": "Seattle"
        },
        {
          "name": "Belltown",
          "street": "2200 1st Ave",
          "zip": "98121",
          "city": "Seattle"
        },
        {
          "name": "West Seattle",
          "street": "4700 California Ave SW",
          "zip": "98116",
          "city": "Seattle"
        },
        {
          "name": "Beacon Hill",
          "street": "2500 Beacon Ave S",
          "zip": "98144",
          "city": "Seattle"
        },
        {
          "name": "University District",
          "street": "4300 University Way NE",
          "zip": "98105",
          "city": "Seattle"
        },
        {
          "name": "Columbia City",
          "street": "4800 Rainier Ave S",
          "zip": "98118",
          "city": "Seattle"
        },
        {
          "name": "Pioneer Square",
          "street": "100 Yesler Way",
          "zip": "98104",
          "city": "Seattle"
        }
      ],
      "Washington DC": [
        [
            {
              "name": "Georgetown",
              "street": "1226 36th St NW",
              "zip": "20007",
              "city": "Washington, DC"
            },
            {
              "name": "Capitol Hill",
              "street": "225 7th St SE",
              "zip": "20003",
              "city": "Washington, DC"
            },
            {
              "name": "Adams Morgan",
              "street": "1770 Euclid St NW",
              "zip": "20009",
              "city": "Washington, DC"
            },
            {
              "name": "Dupont Circle",
              "street": "1600 21st St NW",
              "zip": "20009",
              "city": "Washington, DC"
            },
            {
              "name": "U Street",
              "street": "1213 U St NW",
              "zip": "20009",
              "city": "Washington, DC"
            },
            {
              "name": "H Street NE",
              "street": "1333 H St NE",
              "zip": "20002",
              "city": "Washington, DC"
            },
            {
              "name": "Columbia Heights",
              "street": "3415 11th St NW",
              "zip": "20010",
              "city": "Washington, DC"
            },
            {
              "name": "Penn Quarter & Chinatown",
              "street": "601 F St NW",
              "zip": "20004",
              "city": "Washington, DC"
            },
            {
              "name": "Capitol Riverfront",
              "street": "1500 S Capitol St SE",
              "zip": "20003",
              "city": "Washington, DC"
            },
            {
              "name": "Logan Circle",
              "street": "1330 P St NW",
              "zip": "20005",
              "city": "Washington, DC"
            },
            {
              "name": "Shaw",
              "street": "620 T St NW",
              "zip": "20001",
              "city": "Washington, DC"
            }
          ]
      ],
      "Phoenix": [

      ], 
      "Dallas": [],
      "San Antonio": [
              {
                "name": "Alamo Heights",
                "street": "307 Evans Avenue",
                "city": "Alamo Heights",
                "zip_code": "78209"
              },
              {
                "name": "Olmos Park",
                "street": "4212 McCullough Ave",
                "city": "San Antonio",
                "zip_code": "78212"
              },
              {
                "name": "Terrell Hills",
                "street": "500 Geneseo Rd",
                "city": "San Antonio",
                "zip_code": "78209"
              },
              {
                "name": "Lavaca",
                "street": "120 Labor St",
                "city": "San Antonio",
                "zip_code": "78210"
              },
              {
                "name": "Tobin Hill",
                "street": "700 E Myrtle St",
                "city": "San Antonio",
                "zip_code": "78212"
              },
              {
                "name": "King William",
                "street": "401 King William",
                "city": "San Antonio",
                "zip_code": "78204"
              },
              {
                "name": "Monte Vista",
                "street": "202 W Huisache Ave",
                "city": "San Antonio",
                "zip_code": "78212"
              },
              {
                "name": "Stone Oak",
                "street": "20079 Stone Oak Pkwy",
                "city": "San Antonio",
                "zip_code": "78258"
              },
              {
                "name": "Shavano Park",
                "street": "900 Saddletree Ct",
                "city": "San Antonio",
                "zip_code": "78231"
              },
              {
                "name": "Government Hill",
                "street": "2000 N New Braunfels Ave",
                "city": "San Antonio",
                "zip_code": "78208"
              }
      ],
      "Houston": [
              {
                "name": "Downtown",
                "street": "901 Bagby St",
                "city": "Houston",
                "zip_code": "77002"
              },
              {
                "name": "Midtown",
                "street": "3700 Main St",
                "city": "Houston",
                "zip_code": "77002"
              },
              {
                "name": "Museum District",
                "street": "5555 Hermann Park Dr",
                "city": "Houston",
                "zip_code": "77030"
              },
              {
                "name": "River Oaks",
                "street": "1620 Westheimer Rd",
                "city": "Houston",
                "zip_code": "77006"
              },
              {
                "name": "Montrose",
                "street": "408 Westheimer Rd",
                "city": "Houston",
                "zip_code": "77006"
              },
              {
                "name": "The Heights",
                "street": "339 W 19th St",
                "city": "Houston",
                "zip_code": "77008"
              },
              {
                "name": "EaDo",
                "street": "2202 Dallas St",
                "city": "Houston",
                "zip_code": "77003"
              },
              {
                "name": "Galleria/Uptown",
                "street": "5085 Westheimer Rd",
                "city": "Houston",
                "zip_code": "77056"
              },
              {
                "name": "Memorial",
                "street": "7575 N Picnic Ln",
                "city": "Houston",
                "zip_code": "77007"
              },
              {
                "name": "Third Ward",
                "street": "3100 Cleburne St",
                "city": "Houston",
                "zip_code": "77004"
              },
              {
                "name": "Clear Lake",
                "street": "1601 NASA Pkwy",
                "city": "Houston",
                "zip_code": "77058"
              },
              {
                "name": "Spring Branch",
                "street": "9449 Kempwood Dr",
                "city": "Houston",
                "zip_code": "77080"
              }
      ],
      "Los Angeles": [
            {
                "name": "Downtown LA",
                "street": "200 N Main St",
                "city": "Los Angeles",
                "zip_code": "90012"
            },
            {
                "name": "Arts District",
                "street": "200 S Alameda St",
                "city": "Los Angeles",
                "zip_code": "90012"
            },
            {
                "name": "Chinatown",
                "street": "900 N Broadway",
                "city": "Los Angeles",
                "zip_code": "90012"
            },
            {
                "name": "Santa Monica",
                "street": "200 Santa Monica Pier",
                "city": "Santa Monica",
                "zip_code": "90401"
            },
            {
                "name": "West Hollywood",
                "street": "625 N San Vicente Blvd",
                "city": "West Hollywood",
                "zip_code": "90069"
            },
            {
                "name": "Beverly Hills",
                "street": "9400 S Santa Monica Blvd",
                "city": "Beverly Hills",
                "zip_code": "90210"
            },
            {
                "name": "Silver Lake",
                "street": "2900 Sunset Blvd",
                "city": "Los Angeles",
                "zip_code": "90026"
            },
            {
                "name": "Echo Park",
                "street": "751 Echo Park Ave",
                "city": "Los Angeles",
                "zip_code": "90026"
            },
            {
                "name": "Los Feliz",
                "street": "3200 Los Feliz Blvd",
                "city": "Los Angeles",
                "zip_code": "90039"
            },
            {
                "name": "North Hollywood",
                "street": "11136 Magnolia Blvd",
                "city": "North Hollywood",
                "zip_code": "91601"
            },
            {
                "name": "Sherman Oaks",
                "street": "15300 Ventura Blvd",
                "city": "Sherman Oaks",
                "zip_code": "91403"
            },
            {
                "name": "Encino",
                "street": "17000 Ventura Blvd",
                "city": "Encino",
                "zip_code": "91316"
            },
            {
                "name": "Venice Beach",
                "street": "1 Ocean Front Walk",
                "city": "Venice",
                "zip_code": "90291"
            },
            {
                "name": "Marina del Rey",
                "street": "13552 Fiji Way",
                "city": "Marina del Rey",
                "zip_code": "90292"
            },
            {
                "name": "Koreatown",
                "street": "700 S Western Ave",
                "city": "Los Angeles",
                "zip_code": "90005"
            },
            {
                "name": "Hollywood",
                "street": "6801 Hollywood Blvd",
                "city": "Los Angeles",
                "zip_code": "90028"
            }
      ]

  }